start=new Date('2021-09-17T00:00:00.000Z').valueOf();
sats=[{"OBJECT_NAME":"STARLINK-2135","OBJECT_TYPE":"PAYLOAD","ARG_OF_PERICENTER":"60.4284","RA_OF_ASC_NODE":"172.3018","SITE":"AFETR","REF_FRAME":"TEME","APOAPSIS":"548.517","TLE_LINE1":"1 47408U 21005BM  21259.49097289 -.00000181  00000-0  67764-5 0  9994","PERIOD":"95.593","MEAN_MOTION_DDOT":"0.0000000000000","OBJECT_ID":"2021-005BM","MEAN_ELEMENT_THEORY":"SGP4","RCS_SIZE":"LARGE","TLE_LINE2":"2 47408  53.0552 172.3018 0001835  60.4284 299.6888 15.06389398 37000","LAUNCH_DATE":"2021-01-20","CLASSIFICATION_TYPE":"U","GP_ID":"184823013","COUNTRY_CODE":"US","MEAN_MOTION":"15.06389398","SEMIMAJOR_AXIS":"6925.381","EPOCH":"2021-09-16T11:47:00.057696","ECCENTRICITY":"0.00018350","ELEMENT_SET_NO":"999","DECAY_DATE":null,"INCLINATION":"53.0552","EPHEMERIS_TYPE":"0","REV_AT_EPOCH":"3700","MEAN_MOTION_DOT":"-0.00000181","NORAD_CAT_ID":"47408","TIME_SYSTEM":"UTC","MEAN_ANOMALY":"299.6888","PERIAPSIS":"545.975","FILE":"3117121","CENTER_NAME":"EARTH","BSTAR":"0.00000677640000"},{"SEMIMAJOR_AXIS":"6901.165","GP_ID":"184821262","MEAN_MOTION":"15.14325323","COUNTRY_CODE":"US","MEAN_ELEMENT_THEORY":"SGP4","RCS_SIZE":"LARGE","PERIOD":"95.092","MEAN_MOTION_DDOT":"0.0000000000000","OBJECT_ID":"2021-006A","CLASSIFICATION_TYPE":"U","TLE_LINE2":"2 47413  97.4883 319.6902 0003345 177.9609 182.1636 15.14325323 36818","LAUNCH_DATE":"2021-01-24","RA_OF_ASC_NODE":"319.6902","OBJECT_NAME":"STARLINK-2199","OBJECT_TYPE":"PAYLOAD","ARG_OF_PERICENTER":"177.9609","TLE_LINE1":"1 47413U 21006A   21259.41374547  .00001766  00000-0  99954-4 0  9992","SITE":"AFETR","REF_FRAME":"TEME","APOAPSIS":"525.338","MEAN_ANOMALY":"182.1636","PERIAPSIS":"520.721","BSTAR":"0.00009995400000","FILE":"3117121","CENTER_NAME":"EARTH","MEAN_MOTION_DOT":"0.00001766","INCLINATION":"97.4883","DECAY_DATE":null,"EPHEMERIS_TYPE":"0","REV_AT_EPOCH":"3681","TIME_SYSTEM":"UTC","NORAD_CAT_ID":"47413","ECCENTRICITY":"0.00033450","EPOCH":"2021-09-16T09:55:47.608608","ELEMENT_SET_NO":"999"},{"MEAN_MOTION":"15.14316912","COUNTRY_CODE":"US","GP_ID":"184852217","SEMIMAJOR_AXIS":"6901.190","APOAPSIS":"525.322","REF_FRAME":"TEME","SITE":"AFETR","TLE_LINE1":"1 47414U 21006B   21259.74459877 -.00000491  00000-0 -23302-4 0  9999","OBJECT_NAME":"STARLINK-2200","OBJECT_TYPE":"PAYLOAD","ARG_OF_PERICENTER":"179.9049","RA_OF_ASC_NODE":"320.0063","TLE_LINE2":"2 47414  97.4880 320.0063 0003285 179.9049 180.2184 15.14316912 35891","LAUNCH_DATE":"2021-01-24","CLASSIFICATION_TYPE":"U","OBJECT_ID":"2021-006B","MEAN_MOTION_DDOT":"0.0000000000000","PERIOD":"95.092","RCS_SIZE":"LARGE","MEAN_ELEMENT_THEORY":"SGP4","NORAD_CAT_ID":"47414","TIME_SYSTEM":"UTC","REV_AT_EPOCH":"3589","INCLINATION":"97.4880","DECAY_DATE":null,"EPHEMERIS_TYPE":"0","MEAN_MOTION_DOT":"-0.00000491","CENTER_NAME":"EARTH","FILE":"3117438","BSTAR":"-0.00002330200000","PERIAPSIS":"520.788","MEAN_ANOMALY":"180.2184","ELEMENT_SET_NO":"999","ECCENTRICITY":"0.00032850","EPOCH":"2021-09-16T17:52:13.333728"},{"MEAN_ELEMENT_THEORY":"SGP4","RCS_SIZE":"LARGE","PERIOD":"95.919","MEAN_MOTION_DDOT":"0.0000000000000","OBJECT_ID":"2021-006C","CLASSIFICATION_TYPE":"U","TLE_LINE2":"2 47415  97.4882 317.4439 0001244 232.8227 127.2885 15.01260474 35730","LAUNCH_DATE":"2021-01-24","RA_OF_ASC_NODE":"317.4439","OBJECT_TYPE":"PAYLOAD","ARG_OF_PERICENTER":"232.8227","OBJECT_NAME":"STARLINK-2201","TLE_LINE1":"1 47415U 21006C   21259.78420206  .00001454  00000-0  11762-3 0  9992","REF_FRAME":"TEME","SITE":"AFETR","APOAPSIS":"563.874","SEMIMAJOR_AXIS":"6941.145","GP_ID":"184852969","MEAN_MOTION":"15.01260474","COUNTRY_CODE":"US","ECCENTRICITY":"0.00012440","EPOCH":"2021-09-16T18:49:15.057984","ELEMENT_SET_NO":"999","MEAN_ANOMALY":"127.2885","PERIAPSIS":"562.147","BSTAR":"0.00011762000000","FILE":"3117438","CENTER_NAME":"EARTH","MEAN_MOTION_DOT":"0.00001454","DECAY_DATE":null,"INCLINATION":"97.4882","EPHEMERIS_TYPE":"0","REV_AT_EPOCH":"3573","TIME_SYSTEM":"UTC","NORAD_CAT_ID":"47415"},{"GP_ID":"184852715","COUNTRY_CODE":"US","MEAN_MOTION":"15.14322636","SEMIMAJOR_AXIS":"6901.173","OBJECT_NAME":"STARLINK-2202","OBJECT_TYPE":"PAYLOAD","ARG_OF_PERICENTER":"176.4156","RA_OF_ASC_NODE":"319.8627","REF_FRAME":"TEME","SITE":"AFETR","APOAPSIS":"525.472","TLE_LINE1":"1 47416U 21006D   21259.61517889  .00001514  00000-0  86221-4 0  9999","PERIOD":"95.092","OBJECT_ID":"2021-006D","MEAN_MOTION_DDOT":"0.0000000000000","MEAN_ELEMENT_THEORY":"SGP4","RCS_SIZE":"LARGE","LAUNCH_DATE":"2021-01-24","TLE_LINE2":"2 47416  97.4873 319.8627 0003528 176.4156 183.7102 15.14322636 35874","CLASSIFICATION_TYPE":"U","INCLINATION":"97.4873","DECAY_DATE":null,"EPHEMERIS_TYPE":"0","REV_AT_EPOCH":"3587","MEAN_MOTION_DOT":"0.00001514","NORAD_CAT_ID":"47416","TIME_SYSTEM":"UTC","MEAN_ANOMALY":"183.7102","PERIAPSIS":"520.603","FILE":"3117438","CENTER_NAME":"EARTH","BSTAR":"0.00008622100000","ECCENTRICITY":"0.00035280","EPOCH":"2021-09-16T14:45:51.456096","ELEMENT_SET_NO":"999"},{"TIME_SYSTEM":"UTC","NORAD_CAT_ID":"47417","MEAN_MOTION_DOT":"0.00001610","REV_AT_EPOCH":"3584","DECAY_DATE":null,"INCLINATION":"97.4879","EPHEMERIS_TYPE":"0","BSTAR":"0.00009143900000","CENTER_NAME":"EARTH","FILE":"3117121","PERIAPSIS":"520.561","MEAN_ANOMALY":"187.9307","ELEMENT_SET_NO":"999","ECCENTRICITY":"0.00035700","EPOCH":"2021-09-16T09:57:45.758880","MEAN_MOTION":"15.14327040","COUNTRY_CODE":"US","GP_ID":"184821762","SEMIMAJOR_AXIS":"6901.159","TLE_LINE1":"1 47417U 21006E   21259.41511295  .00001610  00000-0  91439-4 0  9997","APOAPSIS":"525.488","SITE":"AFETR","REF_FRAME":"TEME","RA_OF_ASC_NODE":"319.6787","ARG_OF_PERICENTER":"172.1981","OBJECT_TYPE":"PAYLOAD","OBJECT_NAME":"STARLINK-2203","CLASSIFICATION_TYPE":"U","LAUNCH_DATE":"2021-01-24","TLE_LINE2":"2 47417  97.4879 319.6787 0003570 172.1981 187.9307 15.14327040 35846","RCS_SIZE":"LARGE","MEAN_ELEMENT_THEORY":"SGP4","OBJECT_ID":"2021-006E","MEAN_MOTION_DDOT":"0.0000000000000","PERIOD":"95.092"},{"SITE":"AFETR","REF_FRAME":"TEME","APOAPSIS":"563.803","TLE_LINE1":"1 47418U 21006F   21259.18477730  .00001755  00000-0  14099-3 0  9993","OBJECT_NAME":"STARLINK-2204","OBJECT_TYPE":"PAYLOAD","ARG_OF_PERICENTER":"250.1967","RA_OF_ASC_NODE":"316.8625","LAUNCH_DATE":"2021-01-24","TLE_LINE2":"2 47418  97.4869 316.8625 0001155 250.1967 109.9133 15.01263316 35644","CLASSIFICATION_TYPE":"U","PERIOD":"95.919","MEAN_MOTION_DDOT":"0.0000000000000","OBJECT_ID":"2021-006F","MEAN_ELEMENT_THEORY":"SGP4","RCS_SIZE":"LARGE","MEAN_MOTION":"15.01263316","COUNTRY_CODE":"US","GP_ID":"184822012","SEMIMAJOR_AXIS":"6941.137","ELEMENT_SET_NO":"999","ECCENTRICITY":"0.00011550","EPOCH":"2021-09-16T04:26:04.758720","NORAD_CAT_ID":"47418","TIME_SYSTEM":"UTC","DECAY_DATE":null,"EPHEMERIS_TYPE":"0","INCLINATION":"97.4869","REV_AT_EPOCH":"3564","MEAN_MOTION_DOT":"0.00001755","FILE":"3117121","CENTER_NAME":"EARTH","BSTAR":"0.00014099000000","MEAN_ANOMALY":"109.9133","PERIAPSIS":"562.200"},{"SEMIMAJOR_AXIS":"6901.188","COUNTRY_CODE":"US","MEAN_MOTION":"15.14317503","GP_ID":"184822264","TLE_LINE2":"2 47419  97.4880 319.6792 0003221 181.8703 178.2517 15.14317503 35847","LAUNCH_DATE":"2021-01-24","CLASSIFICATION_TYPE":"U","PERIOD":"95.092","OBJECT_ID":"2021-006G","MEAN_MOTION_DDOT":"0.0000000000000","RCS_SIZE":"LARGE","MEAN_ELEMENT_THEORY":"SGP4","REF_FRAME":"TEME","SITE":"AFETR","APOAPSIS":"525.276","TLE_LINE1":"1 47419U 21006G   21259.41557562 -.00000297  00000-0 -12722-4 0  9996","ARG_OF_PERICENTER":"181.8703","OBJECT_TYPE":"PAYLOAD","OBJECT_NAME":"STARLINK-2205","RA_OF_ASC_NODE":"319.6792","FILE":"3117121","CENTER_NAME":"EARTH","BSTAR":"-0.00001272200000","MEAN_ANOMALY":"178.2517","PERIAPSIS":"520.830","NORAD_CAT_ID":"47419","TIME_SYSTEM":"UTC","INCLINATION":"97.4880","DECAY_DATE":null,"EPHEMERIS_TYPE":"0","REV_AT_EPOCH":"3584","MEAN_MOTION_DOT":"-0.00000297","ELEMENT_SET_NO":"999","EPOCH":"2021-09-16T09:58:25.733568","ECCENTRICITY":"0.00032210"},{"MEAN_MOTION":"15.14321306","COUNTRY_CODE":"US","GP_ID":"184853215","SEMIMAJOR_AXIS":"6901.177","REF_FRAME":"TEME","SITE":"AFETR","APOAPSIS":"525.430","TLE_LINE1":"1 47420U 21006H   21259.61426650 -.00000619  00000-0 -30312-4 0  9996","ARG_OF_PERICENTER":"180.7956","OBJECT_TYPE":"PAYLOAD","OBJECT_NAME":"STARLINK-2206","RA_OF_ASC_NODE":"319.8713","TLE_LINE2":"2 47420  97.4877 319.8713 0003460 180.7956 179.3270 15.14321306 35870","LAUNCH_DATE":"2021-01-24","CLASSIFICATION_TYPE":"U","PERIOD":"95.092","OBJECT_ID":"2021-006H","MEAN_MOTION_DDOT":"0.0000000000000","RCS_SIZE":"LARGE","MEAN_ELEMENT_THEORY":"SGP4","NORAD_CAT_ID":"47420","TIME_SYSTEM":"UTC","DECAY_DATE":null,"EPHEMERIS_TYPE":"0","INCLINATION":"97.4877","REV_AT_EPOCH":"3587","MEAN_MOTION_DOT":"-0.00000619","FILE":"3117438","CENTER_NAME":"EARTH","BSTAR":"-0.00003031200000","MEAN_ANOMALY":"179.3270","PERIAPSIS":"520.654","ELEMENT_SET_NO":"999","ECCENTRICITY":"0.00034600","EPOCH":"2021-09-16T14:44:32.625600"},{"MEAN_MOTION":"15.14323892","COUNTRY_CODE":"US","GP_ID":"184851469","SEMIMAJOR_AXIS":"6901.169","APOAPSIS":"525.241","REF_FRAME":"TEME","SITE":"AFETR","TLE_LINE1":"1 47421U 21006J   21259.74687727  .00001260  00000-0  72329-4 0  9990","ARG_OF_PERICENTER":"181.3220","OBJECT_TYPE":"PAYLOAD","OBJECT_NAME":"STARLINK-2207","RA_OF_ASC_NODE":"320.0018","LAUNCH_DATE":"2021-01-24","TLE_LINE2":"2 47421  97.4878 320.0018 0003198 181.3220 178.8004 15.14323892 35896","CLASSIFICATION_TYPE":"U","OBJECT_ID":"2021-006J","MEAN_MOTION_DDOT":"0.0000000000000","PERIOD":"95.092","MEAN_ELEMENT_THEORY":"SGP4","RCS_SIZE":"LARGE","NORAD_CAT_ID":"47421","TIME_SYSTEM":"UTC","REV_AT_EPOCH":"3589","EPHEMERIS_TYPE":"0","DECAY_DATE":null,"INCLINATION":"97.4878","MEAN_MOTION_DOT":"0.00001260","CENTER_NAME":"EARTH","FILE":"3117438","BSTAR":"0.00007232900000","PERIAPSIS":"520.827","MEAN_ANOMALY":"178.8004","ELEMENT_SET_NO":"999","ECCENTRICITY":"0.00031980","EPOCH":"2021-09-16T17:55:30.196128"}];
